NIMIQ 2                 
1 27632U 02062A   26064.56154126 -.00000073  00000+0  00000+0 0  9997
2 27632   9.2074  57.9709 0006546 291.1375 267.1441  1.00272684 43147
ANIK F2                 
1 28378U 04027A   26064.63252159 -.00000056  00000+0  00000+0 0  9992
2 28378   3.0172  80.8381 0003100 299.2939 259.8235  1.00272648 40220
ANIK F1R                
1 28868U 05036A   26064.63330159 -.00000081  00000+0  00000+0 0  9992
2 28868   4.0480  77.8764 0003008 303.5219 262.6619  1.00272331 45418
ANIK F3                 
1 31102U 07009A   26064.63104824 -.00000008  00000+0  00000+0 0  9996
2 31102   0.9300  85.1938 0002804 269.5086 277.1405  1.00273837 45528
NIMIQ 4                 
1 33373U 08044A   26064.74257202 -.00000227  00000+0  00000+0 0  9992
2 33373   0.0197 224.1795 0002016 133.6419 350.9571  1.00270956 63946
TELSTAR 11N             
1 34111U 09009A   26064.43318737 -.00000259  00000+0  00000+0 0  9997
2 34111   0.0203 139.7219 0002428 196.1911 305.6330  1.00268548 45208
TERRESTAR-1             
1 35496U 09035A   26064.56119459 -.00000062  00000+0  00000+0 0  9999
2 35496   5.0946  48.8323 0002931 303.9271 261.5648  1.00273306 61091
NIMIQ 5                 
1 35873U 09050A   26064.63309328 -.00000264  00000+0  00000+0 0  9993
2 35873   0.0499 269.8506 0002636  77.0405 331.6705  1.00272739 60301
SKYTERRA 1              
1 37218U 10061A   26064.42053397 -.00000124  00000+0  00000+0 0  9996
2 37218   4.9044  50.9130 0001605 300.5443 221.7477  1.00271575 56158
TELSTAR 14R             
1 37602U 11021A   26064.49940098 -.00000288  00000+0  00000+0 0  9991
2 37602   0.0294 257.9205 0002380  93.2701 288.8177  1.00272740 54799
NIMIQ 6                 
1 38342U 12026A   26064.56518128 -.00000181  00000+0  00000+0 0  9994
2 38342   0.0528 279.8213 0002597  62.4948 293.3290  1.00270880 49372
ANIK G1                 
1 39127U 13014A   26064.63330159 -.00000081  00000+0  00000+0 0  9997
2 39127   0.0521 269.6575 0002973  54.8220 319.5562  1.00271887 47213
TELSTAR 12V             
1 41036U 15068A   26064.65132834 -.00000126  00000+0  00000+0 0  9992
2 41036   0.0134 219.0958 0002406 132.9622  30.7943  1.00272211 37580
VIASAT-2                
1 42740U 17029A   26064.07020973 -.00000274  00000+0  00000+0 0  9994
2 42740   0.0216 241.0889 0000570 139.0997  97.9902  1.00271692 32166
LEO 1 (LEO VANTAGE 1)   
1 43113U 18004C   26064.68275168  .00005814  00000+0  40296-3 0  9997
2 43113  99.2479 329.4826 0353267  37.1668 325.3434 14.67137126422308
TELSTAR 19V             
1 43562U 18059A   26064.49940098 -.00000287  00000+0  00000+0 0  9990
2 43562   0.0204 164.1099 0000696 262.4286 213.4631  1.00271487 28100
TELSTAR 18V             
1 43611U 18069A   26064.78794816  .00000000  00000+0  00000+0 0  9995
2 43611   0.0206 171.4994 0002046 178.9200 234.7731  1.00267957 27596
AMOS-17                 
1 44479U 19050A   26064.74177078  .00000102  00000+0  00000+0 0  9993
2 44479   0.0450 291.1442 0001437  56.4653  99.8642  1.00271937 24145
